{"type": "FeatureCollection", "features": [ {"type": "Feature", "properties": {"norad_id": 36402, "name": "COSMOS 2460 (732)", "group": "gnss", "lat": -17.725143010736875, "lon": 148.7000226256945, "alt_km": 19131.709967557, "timestamp": "2025-12-25T07:41:09.965694+00:00", "meta": {"OBJECT_NAME": "COSMOS 2460 (732)", "OBJECT_ID": "2010-007C", "EPOCH": "2025-12-24T05:56:36.176352", "MEAN_MOTION": 2.1310636, "ECCENTRICITY": 0.00024969, "INCLINATION": 65.5233, "RA_OF_ASC_NODE": 320.3848, "ARG_OF_PERICENTER": 284.0836, "MEAN_ANOMALY": 172.5466, "EPHEMERIS_TYPE": 0, "CLASSIFICATION_TYPE": "U", "NORAD_CAT_ID": 36402, "ELEMENT_SET_NO": 999, "REV_AT_EPOCH": 12300, "BSTAR": 0, "MEAN_MOTION_DOT": -3.3e-07, "MEAN_MOTION_DDOT": 0}, "tle": {"line1": "1 36402U 10007C   25358.24764093 -.00000033  00000+0  00000+0 0  9996", "line2": "2 36402  65.5233 320.3848 0002496 284.0836 172.5466  2.13106360123000"}}, "geometry": {"type": "Point", "coordinates": [148.7000226256945, -17.725143010736875]}}, {"type": "Feature", "properties": {"norad_id": 36585, "name": "GPS BIIF-1  (PRN 25)", "group": "gnss", "lat": -54.14669759431517, "lon": 119.88267836905194, "alt_km": 20501.405728218953, "timestamp": "2025-12-25T07:41:09.965705+00:00", "meta": {"OBJECT_NAME": "GPS BIIF-1  (PRN 25)", "OBJECT_ID": "2010-022A", "EPOCH": "2025-12-24T05:28:23.943360", "MEAN_MOTION": 2.00553772, "ECCENTRICITY": 0.01265509, "INCLINATION": 54.2984, "RA_OF_ASC_NODE": 215.6106, "ARG_OF_PERICENTER": 65.2201, "MEAN_ANOMALY": 133.4406, "EPHEMERIS_TYPE": 0, "CLASSIFICATION_TYPE": "U", "NORAD_CAT_ID": 36585, "ELEMENT_SET_NO": 999, "REV_AT_EPOCH": 11408, "BSTAR": 0, "MEAN_MOTION_DOT": 7.3e-07, "MEAN_MOTION_DDOT": 0}, "tle": {"line1": "1 36585U 10022A   25358.22805490  .00000073  00000+0  00000+0 0  9993", "line2": "2 36585  54.2984 215.6106 0126550  65.2201 133.4406  2.00553772114083"}}, "geometry": {"type": "Point", "coordinates": [119.88267836905194, -54.14669759431517]}}, {"type": "Feature", "properties": {"norad_id": 36828, "name": "BEIDOU-2 IGSO-1 (C06)", "group": "gnss", "lat": 22.048461141529184, "lon": -32.43356851811412, "alt_km": 35680.88587825868, "timestamp": "2025-12-25T07:41:09.965717+00:00", "meta": {"OBJECT_NAME": "BEIDOU-2 IGSO-1 (C06)", "OBJECT_ID": "2010-036A", "EPOCH": "2025-12-20T21:47:26.739168", "MEAN_MOTION": 1.00282395, "ECCENTRICITY": 0.0051798, "INCLINATION": 54.2882, "RA_OF_ASC_NODE": 164.5739, "ARG_OF_PERICENTER": 215.2932, "MEAN_ANOMALY": 144.6604, "EPHEMERIS_TYPE": 0, "CLASSIFICATION_TYPE": "U", "NORAD_CAT_ID": 36828, "ELEMENT_SET_NO": 999, "REV_AT_EPOCH": 5631, "BSTAR": 0, "MEAN_MOTION_DOT": -5.5e-07, "MEAN_MOTION_DDOT": 0}, "tle": {"line1": "1 36828U 10036A   25354.90794837 -.00000055  00000+0  00000+0 0  9992", "line2": "2 36828  54.2882 164.5739 0051798 215.2932 144.6604  1.00282395 56317"}}, "geometry": {"type": "Point", "coordinates": [-32.43356851811412, 22.048461141529184]}}, {"type": "Feature", "properties": {"norad_id": 37210, "name": "BEIDOU-2 G4 (C04)", "group": "gnss", "lat": -2.79522581874736, "lon": 9.6077169369681, "alt_km": 35798.393365103155, "timestamp": "2025-12-25T07:41:09.965731+00:00", "meta": {"OBJECT_NAME": "BEIDOU-2 G4 (C04)", "OBJECT_ID": "2010-057A", "EPOCH": "2025-12-24T20:42:34.844256", "MEAN_MOTION": 1.00271563, "ECCENTRICITY": 0.0010423, "INCLINATION": 3.2126, "RA_OF_ASC_NODE": 69.8922, "ARG_OF_PERICENTER": 193.8938, "MEAN_ANOMALY": 300.575, "EPHEMERIS_TYPE": 0, "CLASSIFICATION_TYPE": "U", "NORAD_CAT_ID": 37210, "ELEMENT_SET_NO": 999, "REV_AT_EPOCH": 5554, "BSTAR": 0, "MEAN_MOTION_DOT": -9.1e-07, "MEAN_MOTION_DDOT": 0}, "tle": {"line1": "1 37210U 10057A   25358.86290329 -.00000091  00000+0  00000+0 0  9997", "line2": "2 37210   3.2126  69.8922 0010423 193.8938 300.5750  1.00271563 55540"}}, "geometry": {"type": "Point", "coordinates": [9.6077169369681, -2.79522581874736]}}, {"type": "Feature", "properties": {"norad_id": 37256, "name": "BEIDOU-2 IGSO-2 (C07)", "group": "gnss", "lat": 30.599125164139796, "lon": -53.70031997979782, "alt_km": 35982.634286111206, "timestamp": "2025-12-25T07:41:09.965743+00:00", "meta": {"OBJECT_NAME": "BEIDOU-2 IGSO-2 (C07)", "OBJECT_ID": "2010-068A", "EPOCH": "2025-12-24T17:01:55.972704", "MEAN_MOTION": 1.00282798, "ECCENTRICITY": 0.0048511, "INCLINATION": 47.864, "RA_OF_ASC_NODE": 274.0027, "ARG_OF_PERICENTER": 216.2647, "MEAN_ANOMALY": 326.7558, "EPHEMERIS_TYPE": 0, "CLASSIFICATION_TYPE": "U", "NORAD_CAT_ID": 37256, "ELEMENT_SET_NO": 999, "REV_AT_EPOCH": 5504, "BSTAR": 0, "MEAN_MOTION_DOT": -1.92e-06, "MEAN_MOTION_DDOT": 0}, "tle": {"line1": "1 37256U 10068A   25358.70967561 -.00000192  00000+0  00000+0 0  9993", "line2": "2 37256  47.8640 274.0027 0048511 216.2647 326.7558  1.00282798 55040"}}, "geometry": {"type": "Point", "coordinates": [-53.70031997979782, 30.599125164139796]}}, {"type": "Feature", "properties": {"norad_id": 37384, "name": "BEIDOU-2 IGSO-3 (C08)", "group": "gnss", "lat": -61.72207876282963, "lon": -37.28556750899606, "alt_km": 35786.03710760574, "timestamp": "2025-12-25T07:41:09.965754+00:00", "meta": {"OBJECT_NAME": "BEIDOU-2 IGSO-3 (C08)", "OBJECT_ID": "2011-013A", "EPOCH": "2025-12-24T13:36:08.179776", "MEAN_MOTION": 1.00268125, "ECCENTRICITY": 0.00352821, "INCLINATION": 62.1584, "RA_OF_ASC_NODE": 41.8043, "ARG_OF_PERICENTER": 187.8377, "MEAN_ANOMALY": 174.9924, "EPHEMERIS_TYPE": 0, "CLASSIFICATION_TYPE": "U", "NORAD_CAT_ID": 37384, "ELEMENT_SET_NO": 999, "REV_AT_EPOCH": 5391, "BSTAR": 0, "MEAN_MOTION_DOT": -1.63e-06, "MEAN_MOTION_DDOT": 0}, "tle": {"line1": "1 37384U 11013A   25358.56676134 -.00000163  00000+0  00000+0 0  9991", "line2": "2 37384  62.1584  41.8043 0035282 187.8377 174.9924  1.00268125 53913"}}, "geometry": {"type": "Point", "coordinates": [-37.28556750899606, -61.72207876282963]}}, {"type": "Feature", "properties": {"norad_id": 37605, "name": "GSAT-8 (GAGAN/PRN 127)", "group": "gnss", "lat": -0.029811878913179293, "lon": -95.57444368839526, "alt_km": 35748.300471799885, "timestamp": "2025-12-25T07:41:09.965766+00:00", "meta": {"OBJECT_NAME": "GSAT-8 (GAGAN/PRN 127)", "OBJECT_ID": "2011-022A", "EPOCH": "2025-12-24T21:55:12.887040", "MEAN_MOTION": 1.00271515, "ECCENTRICITY": 0.00089826, "INCLINATION": 1.6793, "RA_OF_ASC_NODE": 84.0666, "ARG_OF_PERICENTER": 186.2964, "MEAN_ANOMALY": 207.1895, "EPHEMERIS_TYPE": 0, "CLASSIFICATION_TYPE": "U", "NORAD_CAT_ID": 37605, "ELEMENT_SET_NO": 999, "REV_AT_EPOCH": 5147, "BSTAR": 0, "MEAN_MOTION_DOT": 1.05e-06, "MEAN_MOTION_DDOT": 0}, "tle": {"line1": "1 37605U 11022A   25358.91334360  .00000105  00000+0  00000+0 0  9993", "line2": "2 37605   1.6793  84.0666 0008982 186.2964 207.1895  1.00271515 51473"}}, "geometry": {"type": "Point", "coordinates": [-95.57444368839526, -0.029811878913179293]}}, {"type": "Feature", "properties": {"norad_id": 37763, "name": "BEIDOU-2 IGSO-4 (C09)", "group": "gnss", "lat": 35.0106534276905, "lon": -42.703781665979, "alt_km": 35824.781006395824, "timestamp": "2025-12-25T07:41:09.965779+00:00", "meta": {"OBJECT_NAME": "BEIDOU-2 IGSO-4 (C09)", "OBJECT_ID": "2011-038A", "EPOCH": "2025-12-21T10:06:26.864064", "MEAN_MOTION": 1.00280083, "ECCENTRICITY": 0.01491557, "INCLINATION": 54.5854, "RA_OF_ASC_NODE": 167.2693, "ARG_OF_PERICENTER": 230.0944, "MEAN_ANOMALY": 299.1265, "EPHEMERIS_TYPE": 0, "CLASSIFICATION_TYPE": "U", "NORAD_CAT_ID": 37763, "ELEMENT_SET_NO": 999, "REV_AT_EPOCH": 5286, "BSTAR": 0, "MEAN_MOTION_DOT": 5.9e-07, "MEAN_MOTION_DDOT": 0}, "tle": {"line1": "1 37763U 11038A   25355.42114426  .00000059  00000+0  00000+0 0  9995", "line2": "2 37763  54.5854 167.2693 0149155 230.0944 299.1265  1.00280083 52867"}}, "geometry": {"type": "Point", "coordinates": [-42.703781665979, 35.0106534276905]}}, {"type": "Feature", "properties": {"norad_id": 37846, "name": "GSAT0101 (GALILEO-PFM)", "group": "gnss", "lat": 47.83872609528318, "lon": 32.208962926245555, "alt_km": 23218.340676582662, "timestamp": "2025-12-25T07:41:09.965792+00:00", "meta": {"OBJECT_NAME": "GSAT0101 (GALILEO-PFM)", "OBJECT_ID": "2011-060A", "EPOCH": "2025-12-22T06:52:10.962336", "MEAN_MOTION": 1.70475741, "ECCENTRICITY": 0.00032123, "INCLINATION": 57.0506, "RA_OF_ASC_NODE": 346.5611, "ARG_OF_PERICENTER": 320.0005, "MEAN_ANOMALY": 39.9838, "EPHEMERIS_TYPE": 0, "CLASSIFICATION_TYPE": "U", "NORAD_CAT_ID": 37846, "ELEMENT_SET_NO": 999, "REV_AT_EPOCH": 8810, "BSTAR": 0, "MEAN_MOTION_DOT": -6.5e-07, "MEAN_MOTION_DDOT": 0}, "tle": {"line1": "1 37846U 11060A   25356.28623799 -.00000065  00000+0  00000+0 0  9993", "line2": "2 37846  57.0506 346.5611 0003212 320.0005  39.9838  1.70475741 88100"}}, "geometry": {"type": "Point", "coordinates": [32.208962926245555, 47.83872609528318]}}, {"type": "Feature", "properties": {"norad_id": 37847, "name": "GSAT0102 (GALILEO-FM2)", "group": "gnss", "lat": 53.126205451263836, "lon": 106.63564581526356, "alt_km": 23229.61415673041, "timestamp": "2025-12-25T07:41:09.965804+00:00", "meta": {"OBJECT_NAME": "GSAT0102 (GALILEO-FM2)", "OBJECT_ID": "2011-060B", "EPOCH": "2025-12-22T11:58:40.586304", "MEAN_MOTION": 1.70475957, "ECCENTRICITY": 0.00051595, "INCLINATION": 57.0512, "RA_OF_ASC_NODE": 346.5558, "ARG_OF_PERICENTER": 313.0615, "MEAN_ANOMALY": 223.0229, "EPHEMERIS_TYPE": 0, "CLASSIFICATION_TYPE": "U", "NORAD_CAT_ID": 37847, "ELEMENT_SET_NO": 999, "REV_AT_EPOCH": 8811, "BSTAR": 0, "MEAN_MOTION_DOT": -6.5e-07, "MEAN_MOTION_DDOT": 0}, "tle": {"line1": "1 37847U 11060B   25356.49908086 -.00000065  00000+0  00000+0 0  9992", "line2": "2 37847  57.0512 346.5558 0005159 313.0615 223.0229  1.70475957 88119"}}, "geometry": {"type": "Point", "coordinates": [106.63564581526356, 53.126205451263836]}}]}